{
    "links": {
        "self": "http://www.neowsapp.com/rest/v1/neo/3825652?api_key=iIulBulltgU6a56xZRHN4H3l9WmuAYTsLGpBGhQ2"
    },
    "id": "3825652",
    "neo_reference_id": "3825652",
    "name": "(2018 NL4)",
    "designation": "2018 NL4",
    "nasa_jpl_url": "http://ssd.jpl.nasa.gov/sbdb.cgi?sstr=3825652",
    "absolute_magnitude_h": 24.2,
    "estimated_diameter": {
        "kilometers": {
            "estimated_diameter_min": 0.0384197891,
            "estimated_diameter_max": 0.0859092601
        },
        "meters": {
            "estimated_diameter_min": 38.4197891064,
            "estimated_diameter_max": 85.9092601232
        },
        "miles": {
            "estimated_diameter_min": 0.0238729428,
            "estimated_diameter_max": 0.0533815229
        },
        "feet": {
            "estimated_diameter_min": 126.0491808919,
            "estimated_diameter_max": 281.8545369825
        }
    },
    "is_potentially_hazardous_asteroid": false,
    "close_approach_data": [
        {
            "close_approach_date": "2018-07-18",
            "close_approach_date_full": "2018-Jul-18 01:34",
            "epoch_date_close_approach": 1531877640000,
            "relative_velocity": {
                "kilometers_per_second": "12.68891395",
                "kilometers_per_hour": "45680.0902198744",
                "miles_per_hour": "28383.8316146769"
            },
            "miss_distance": {
                "astronomical": "0.0266909249",
                "lunar": "10.3827697861",
                "kilometers": "3992905.513369963",
                "miles": "2481076.4369649694"
            },
            "orbiting_body": "Earth"
        }
    ],
    "orbital_data": {
        "orbit_id": "4",
        "orbit_determination_date": "2018-07-19 06:23:11",
        "first_observation_date": "2018-07-13",
        "last_observation_date": "2018-07-19",
        "data_arc_in_days": 6,
        "observations_used": 77,
        "orbit_uncertainty": "8",
        "minimum_orbit_intersection": ".0163843",
        "jupiter_tisserand_invariant": "3.696",
        "epoch_osculation": "2458314.5",
        "eccentricity": ".5497919783443214",
        "semi_major_axis": "1.944497036980931",
        "inclination": "2.541374646650477",
        "ascending_node_longitude": "138.7557721953993",
        "orbital_period": "990.3970895522322",
        "perihelion_distance": ".8754281641345137",
        "perihelion_argument": "210.8683112788183",
        "aphelion_distance": "3.013565909827348",
        "perihelion_time": "2458357.232129284101",
        "mean_anomaly": "344.4672740817207",
        "mean_motion": ".3634905673670339",
        "equinox": "J2000",
        "orbit_class": {
            "orbit_class_type": "APO",
            "orbit_class_description": "Near-Earth asteroid orbits which cross the Earth’s orbit similar to that of 1862 Apollo",
            "orbit_class_range": "a (semi-major axis) > 1.0 AU; q (perihelion) < 1.017 AU"
        }
    },
    "is_sentry_object": false
}